{
  "type": "FeatureCollection",
  "features": [
    {
      "type": "Feature",
      "properties": {
        "NAME_1": "Chhattisgarh",
        "STATE_CODE": "22",
        "CAPITAL": "Raipur",
        "COUNTRY": "India"
      },
      "geometry": {
        "type": "Polygon",
        "coordinates": [
          [
            [81.35, 17.78],
            [80.85, 18.25],
            [80.45, 18.90],
            [80.25, 19.80],
            [80.35, 20.80],
            [81.00, 21.80],
            [81.60, 22.60],
            [82.30, 23.40],
            [83.35, 24.10],
            [84.10, 23.60],
            [84.35, 22.80],
            [83.20, 21.60],
            [82.60, 20.50],
            [82.15, 19.40],
            [81.80, 18.50],
            [81.35, 17.78]
          ]
        ]
      }
    }
  ]
}
